[{"OBJECT_NAME":"YAOGAN-30 02A","OBJECT_ID":"2017-058A","EPOCH":"2026-03-09T22:50:50.758368","MEAN_MOTION":15.02502907,"ECCENTRICITY":0.0002444,"INCLINATION":34.9965,"RA_OF_ASC_NODE":274.2208,"ARG_OF_PERICENTER":338.504,"MEAN_ANOMALY":21.5565,"EPHEMERIS_TYPE":0,"CLASSIFICATION_TYPE":"U","NORAD_CAT_ID":42945,"ELEMENT_SET_NO":999,"REV_AT_EPOCH":46095,"BSTAR":0.00033405903,"MEAN_MOTION_DOT":4.5e-5,"MEAN_MOTION_DDOT":0},{"OBJECT_NAME":"STARLINK-5627","OBJECT_ID":"2023-013AK","EPOCH":"2026-03-09T00:35:16.194336","MEAN_MOTION":15.02532854,"ECCENTRICITY":0.00014899,"INCLINATION":43.0049,"RA_OF_ASC_NODE":303.5755,"ARG_OF_PERICENTER":267.0997,"MEAN_ANOMALY":92.9675,"EPHEMERIS_TYPE":0,"CLASSIFICATION_TYPE":"U","NORAD_CAT_ID":55364,"ELEMENT_SET_NO":999,"REV_AT_EPOCH":17161,"BSTAR":2.9676035e-5,"MEAN_MOTION_DOT":1.97e-6,"MEAN_MOTION_DDOT":0}]
